{
  "type": "FeatureCollection",
  "features": [
    {
      "type": "Feature",
      "properties": {
        "norad_id": 54259,
        "name": "EUTELSAT 10B",
        "group": "eutelsat",
        "lat": -0.022133517767612926,
        "lon": -84.00956304328007,
        "alt_km": 35788.77509628593,
        "timestamp": "2025-12-23T11:34:47.853062+00:00",
        "meta_object_name": "EUTELSAT 10B",
        "meta_object_id": "2022-157A",
        "meta_epoch": "2025-12-23T01:11:43.653120",
        "meta_mean_motion": 1.00272927,
        "meta_eccentricity": 7.19e-05,
        "meta_inclination": 0.061,
        "meta_ra_of_asc_node": 96.1012,
        "meta_arg_of_pericenter": 1.3181,
        "meta_mean_anomaly": 22.3816,
        "meta_ephemeris_type": 0,
        "meta_classification_type": "U",
        "meta_norad_cat_id": 54259,
        "meta_element_set_no": 999,
        "meta_rev_at_epoch": 1126,
        "meta_bstar": 0,
        "meta_mean_motion_dot": 9e-07,
        "meta_mean_motion_ddot": 0,
        "tle_line1": "1 54259U 22157A   25357.04981080  .00000090  00000+0  00000+0 0  9991",
        "tle_line2": "2 54259   0.0610  96.1012 0000719   1.3181  22.3816  1.00272927 11266"
      },
      "geometry": {
        "type": "Point",
        "coordinates": [
          -84.00956304328007,
          -0.022133517767612926
        ]
      }
    },
    {
      "type": "Feature",
      "properties": {
        "norad_id": 59346,
        "name": "EUTELSAT 36D",
        "group": "eutelsat",
        "lat": -0.04503434410090064,
        "lon": -58.17560605614335,
        "alt_km": 35785.3135882459,
        "timestamp": "2025-12-23T11:34:47.853073+00:00",
        "meta_object_name": "EUTELSAT 36D",
        "meta_object_id": "2024-059A",
        "meta_epoch": "2025-12-22T21:53:41.767872",
        "meta_mean_motion": 1.00272062,
        "meta_eccentricity": 3.385e-05,
        "meta_inclination": 0.0224,
        "meta_ra_of_asc_node": 32.3182,
        "meta_arg_of_pericenter": 333.4824,
        "meta_mean_anomaly": 90.1956,
        "meta_ephemeris_type": 0,
        "meta_classification_type": "U",
        "meta_norad_cat_id": 59346,
        "meta_element_set_no": 999,
        "meta_rev_at_epoch": 638,
        "meta_bstar": 0,
        "meta_mean_motion_dot": 0,
        "meta_mean_motion_ddot": 0,
        "tle_line1": "1 59346U 24059A   25356.91228898  .00000000  00000+0  00000+0 0  9993",
        "tle_line2": "2 59346   0.0224  32.3182 0000338 333.4824  90.1956  1.00272062  6384"
      },
      "geometry": {
        "type": "Point",
        "coordinates": [
          -58.17560605614335,
          -0.04503434410090064
        ]
      }
    }
  ]
}